[{"OBJECT_NAME":"STARLINK-35457","OBJECT_ID":"2025-259M","EPOCH":"2026-03-09T22:42:02.789568","MEAN_MOTION":15.27604667,"ECCENTRICITY":0.00028698,"INCLINATION":43.0058,"RA_OF_ASC_NODE":272.6221,"ARG_OF_PERICENTER":251.7755,"MEAN_ANOMALY":108.2784,"EPHEMERIS_TYPE":0,"CLASSIFICATION_TYPE":"U","NORAD_CAT_ID":66433,"ELEMENT_SET_NO":999,"REV_AT_EPOCH":1953,"BSTAR":0.0014322783,"MEAN_MOTION_DOT":0.00039394,"MEAN_MOTION_DDOT":0},{"OBJECT_NAME":"COSMOS 2251 DEB","OBJECT_ID":"1993-036SV","EPOCH":"2026-03-09T21:55:42.811680","MEAN_MOTION":15.15006345,"ECCENTRICITY":0.00579573,"INCLINATION":74.0283,"RA_OF_ASC_NODE":1.8812,"ARG_OF_PERICENTER":55.6817,"MEAN_ANOMALY":304.9843,"EPHEMERIS_TYPE":0,"CLASSIFICATION_TYPE":"U","NORAD_CAT_ID":34452,"ELEMENT_SET_NO":999,"REV_AT_EPOCH":91981,"BSTAR":0.0011020825,"MEAN_MOTION_DOT":0.00021495,"MEAN_MOTION_DDOT":0}]
